STARLINK-3723           
1 52138U 22029BC  25126.90264403  .00000169  00000+0  28683-4 0  9994
2 52138  53.2191   6.3430 0001346 108.7466 251.3672 15.08832802174627
STARLINK-3730           
1 52139U 22029BD  25126.94957615 -.00004506  00000+0 -26538-3 0  9990
2 52139  53.2169  16.1323 0001397  83.7319 276.3832 15.08818875174481
STARLINK-3682           
1 52140U 22029BE  25126.89160477 -.00000516  00000+0 -14367-4 0  9993
2 52140  53.2189   6.3863 0001437  90.2601 269.8556 15.08829565174621
STARLINK-3761           
1 52262U 22041B   25126.95415631  .00000229  00000+0  32531-4 0  9996
2 52262  53.2185  46.0598 0002117  85.4093 274.7141 15.08838227168055
STARLINK-3786           
1 52263U 22041C   25126.95783967  .00005541  00000+0  36605-3 0  9994
2 52263  53.2167  46.0910 0001165  75.7600 284.3522 15.08831211168058
STARLINK-3795           
1 52264U 22041D   25126.95048248 -.00000776  00000+0 -30675-4 0  9990
2 52264  53.2196  46.1283 0001591 106.4456 253.6712 15.08835621168058
STARLINK-3740           
1 52265U 22041E   25126.94680245 -.00000713  00000+0 -26738-4 0  9995
2 52265  53.2179  46.1401 0001357  83.2931 276.8215 15.08833445168059
STARLINK-3739           
1 52266U 22041F   25126.94312332 -.00000943  00000+0 -41184-4 0  9992
2 52266  53.2180  46.1584 0001278  84.2335 275.8803 15.08834175168058
STARLINK-3748           
1 52267U 22041G   25126.93944050 -.00000588  00000+0 -18841-4 0  9999
2 52267  53.2189  46.1835 0001633 108.7366 251.3803 15.08833029168054
STARLINK-3746           
1 52268U 22041H   25126.19239085 -.00000478  00000+0 -11910-4 0  9991
2 52268  53.2197  49.4506 0001576  96.1097 264.0075 15.08834164167942
STARLINK-3791           
1 52269U 22041J   25126.93575934 -.00000084  00000+0  12808-4 0  9999
2 52269  53.2185  46.1897 0001332  83.9982 276.1162 15.08835285168053
STARLINK-3804           
1 52270U 22041K   25125.07367790  .00008645  00000+0  56051-3 0  9991
2 52270  53.2165  54.5783 0001492  88.4599 271.6564 15.08846657168984
STARLINK-3788           
1 52271U 22041L   25126.93207717  .00000013  00000+0  18935-4 0  9991
2 52271  53.2186  46.2059 0001336  87.0766 273.0379 15.08836070168056
STARLINK-3781           
1 52272U 22041M   25126.06455595  .00001692  00000+0  12439-3 0  9991
2 52272  53.2185  50.1390 0001693  97.7655 262.3530 15.08838752167923
STARLINK-3782           
1 52273U 22041N   25126.89720118 -.00000741  00000+0 -28475-4 0  9993
2 52273  53.2187  36.7456 0001238  89.5610 270.5524 15.08836611168189
STARLINK-3790           
1 52274U 22041P   25126.51990452  .00000299  00000+0  36892-4 0  9991
2 52274  53.2192  48.0565 0001390  88.4782 271.6370 15.08840245167997
STARLINK-3784           
1 52275U 22041Q   25126.19607746  .00000104  00000+0  24660-4 0  9992
2 52275  53.2201  49.5104 0001737  93.9161 266.2029 15.08837402167948
STARLINK-3778           
1 52276U 22041R   25126.91367749  .00000081  00000+0  23157-4 0  9993
2 52276  53.2187  46.2885 0001504  94.3447 265.7717 15.08838336168054
STARLINK-3780           
1 52278U 22041T   25126.90999744  .00000678  00000+0  60661-4 0  9993
2 52278  53.2184  46.3053 0001459  85.2675 274.8484 15.08840085168058
STARLINK-3764           
1 52280U 22041V   25126.03782906  .00002076  00000+0  14845-3 0  9996
2 52280  53.2176  50.2214 0001361  86.2778 273.8370 15.08843514169146
STARLINK-3779           
1 52281U 22041W   25126.91463306  .00000231  00000+0  32627-4 0  9994
2 52281  53.2185  46.2834 0001333  95.2344 264.8801 15.08837809168056
STARLINK-3783           
1 52282U 22041X   25126.95875826 -.00001182  00000+0 -56208-4 0  9992
2 52282  53.2193  36.0835 0001559  98.8224 261.2945 15.08837075168190
STARLINK-3789           
1 52283U 22041Y   25126.50887936 -.00000077  00000+0  13279-4 0  9991
2 52283  53.2182  48.1071 0001368  88.5011 271.6138 15.08836498167997
STARLINK-3561           
1 52284U 22041Z   25126.95138757 -.00006784  00000+0 -40818-3 0  9991
2 52284  53.2192  36.1187 0001626  83.1549 276.9628 15.08871541168191
STARLINK-3775           
1 52285U 22041AA  25126.50519478  .00000693  00000+0  61639-4 0  9992
2 52285  53.2187  48.1217 0001442  88.6877 271.4281 15.08840346167994
STARLINK-3802           
1 52286U 22041AB  25126.94404263 -.00000767  00000+0 -30088-4 0  9994
2 52286  53.2189  36.1535 0001576  82.9768 277.1403 15.08834319168196
STARLINK-3822           
1 52287U 22041AC  25126.49784125 -.00000329  00000+0 -25713-5 0  9997
2 52287  53.2177  48.1564 0001327  85.4147 274.6996 15.08833235167994
STARLINK-3776           
1 52288U 22041AD  25126.94036825  .00007755  00000+0  50532-3 0  9998
2 52288  53.2189  36.1671 0001186 101.3969 258.7157 15.08801438168192
STARLINK-3751           
1 52289U 22041AE  25126.95507709 -.00000900  00000+0 -38436-4 0  9991
2 52289  53.2203  36.1001 0001639 103.7587 256.3587 15.08837301168191
STARLINK-3772           
1 52290U 22041AF  25126.93028486  .00000319  00000+0  38151-4 0  9997
2 52290  53.2186  36.2172 0001351  90.2693 269.8454 15.08824640168196
STARLINK-3773           
1 52291U 22041AG  25126.87900025  .00103263  00000+0  12596-2 0  9994
2 52291  53.1945 344.1056 0005291  55.4435 304.7077 15.59677028168928
STARLINK-3753           
1 52292U 22041AH  25126.92564205 -.00000625  00000+0 -21190-4 0  9999
2 52292  53.2189  36.2393 0001363  94.6034 265.5113 15.08835695168193
STARLINK-3771           
1 52293U 22041AJ  25126.93764732  .00004253  00000+0  28533-3 0  9994
2 52293  53.2188  36.1924 0001221  94.4904 265.6228 15.08812294168197
STARLINK-3777           
1 52294U 22041AK  25126.19332312  .00005145  00000+0  34138-3 0  9997
2 52294  53.2194  39.5251 0001635 110.8654 249.2514 15.08811485168084
STARLINK-3765           
1 52295U 22041AL  25126.93300112  .00000254  00000+0  34040-4 0  9992
2 52295  53.2181  36.2015 0001873  82.4145 277.7060 15.08833645168192
STARLINK-3766           
1 52296U 22041AM  25126.91093056 -.00001320  00000+0 -64832-4 0  9996
2 52296  53.2189  36.3062 0001385 105.9245 254.1900 15.08838556168192
STARLINK-3758           
1 52297U 22041AN  25126.92932579 -.00000438  00000+0 -94658-5 0  9999
2 52297  53.2186  36.2227 0001309  87.2456 272.8686 15.08831454168192
STARLINK-3760           
1 52298U 22041AP  25126.93663902 -.00000292  00000+0 -24447-6 0  9990
2 52298  53.2190  35.8014 0001922  81.4078 278.7132 15.08829281168202
STARLINK-3769           
1 52300U 22041AR  25126.89986889  .00002881  00000+0  19897-3 0  9995
2 52300  53.2189  36.3486 0001481 109.9530 250.1622 15.08856398169413
STARLINK-3768           
1 52301U 22041AS  25126.05715846  .00001003  00000+0  81163-4 0  9998
2 52301  53.2194  40.1333 0001936  99.6751 260.4460 15.08829905168067
STARLINK-3564           
1 52302U 22041AT  25126.95600527 -.00000886  00000+0 -37601-4 0  9995
2 52302  53.2191  26.1010 0001321  94.8270 265.2873 15.08837062168336
STARLINK-3742           
1 52303U 22041AU  25126.90356068 -.00000289  00000+0 -87257-7 0  9991
2 52303  53.2189  36.3348 0001414  96.7199 263.3954 15.08833595169411
STARLINK-3744           
1 52304U 22041AV  25126.95229921  .00001757  00000+0  12842-3 0  9997
2 52304  53.2184  26.1151 0001343  77.2049 282.9093 15.08853886168331
STARLINK-3724           
1 52305U 22041AW  25126.90725314  .00000811  00000+0  69005-4 0  9994
2 52305  53.2189  36.4239 0001367 100.4078 259.7068 15.08845441168191
STARLINK-3747           
1 52306U 22041AX  25126.94864552 -.00001186  00000+0 -56458-4 0  9993
2 52306  53.2190  26.1360 0001521 111.7898 248.3256 15.08829049169552
STARLINK-3755           
1 52307U 22041AY  25126.89620165 -.00000560  00000+0 -17119-4 0  9994
2 52307  53.2189  36.3662 0001453  88.9044 271.2115 15.08830881168195
STARLINK-3756           
1 52309U 22041BA  25126.94496269 -.00000889  00000+0 -37750-4 0  9995
2 52309  53.2203  26.1479 0001543  93.6906 266.4262 15.08831045169550
STARLINK-3688           
1 52310U 22041BB  25126.94128926 -.00000994  00000+0 -44350-4 0  9990
2 52310  53.2188  26.2294 0001416  86.8520 273.2634 15.08832555169551
STARLINK-3750           
1 52311U 22041BC  25126.93760363  .00001311  00000+0  10047-3 0  9994
2 52311  53.2193  26.1807 0001352 103.0423 257.0720 15.08838802169557
STARLINK-3752           
1 52312U 22041BD  25126.89712921 -.00000032  00000+0  16074-4 0  9994
2 52312  53.2179  26.3164 0001594  88.8394 271.2781 15.08832155169555
STARLINK-3749           
1 52313U 22041BE  25126.90080324 -.00000170  00000+0  73965-5 0  9998
2 52313  53.2204  26.3477 0001531  83.2310 276.8856 15.08834366169550
STARLINK-3889           
1 52331U 22045A   25126.35985622  .00000056  00000+0  21634-4 0  9993
2 52331  53.2162 148.7765 0001601 102.0392 258.0780 15.08825072169248
STARLINK-3831           
1 52332U 22045B   25126.37183634  .00000758  00000+0  65719-4 0  9990
2 52332  53.2161 148.7334 0001395  86.5624 273.5528 15.08839668169242
STARLINK-3847           
1 52333U 22045C   25126.89713623  .00004331  00000+0  29006-3 0  9994
2 52333  53.2133 146.3634 0001173 100.6582 259.4543 15.08834069169312
STARLINK-3880           
1 52334U 22045D   25126.35616797  .00002131  00000+0  15195-3 0  9990
2 52334  53.2157 148.7955 0001252  90.8057 269.3078 15.08834394169231
STARLINK-3814           
1 52335U 22045E   25126.35247073  .00001298  00000+0  99636-4 0  9994
2 52335  53.2162 148.8116 0001424  87.2706 272.8449 15.08836027169247
STARLINK-3823           
1 52336U 22045F   25126.32668983  .00001415  00000+0  10700-3 0  9994
2 52336  53.2158 148.7197 0001338  84.8172 275.2973 15.08841045169240
STARLINK-3797           
1 52337U 22045G   25126.49599873  .00000187  00000+0  29824-4 0  9997
2 52337  53.2158 148.1659 0001256  90.7992 269.3144 15.08835981169261
STARLINK-3792           
1 52339U 22045J   25126.37083405  .00000550  00000+0  52620-4 0  9999
2 52339  53.2157 148.3711 0001302  85.3222 274.7919 15.08835396169250
